GLOBAL-2                
1 43812U 18099BG  26199.84285058  .00001784  00000+0  11713-3 0  9997
2 43812  97.3547 235.0402 0007178  57.2308 302.9612 15.08838248416684
GLOBAL-4                
1 44499U 19054E   26199.78247010  .00039633  00000+0  35966-3 0  9990
2 44499  45.0056  53.6787 0005928 219.3238 140.7230 15.67366282385313
GLOBAL-9                
1 47971U 21023G   26199.69647832  .00011382  00000+0  22177-3 0  9994
2 47971  44.9812  73.2676 0003901 192.5157 167.5637 15.47700222299827
GLOBAL-14               
1 49469U 21106A   26199.76121179  .00014858  00000+0  24419-3 0  9991
2 49469  42.0036 103.2309 0018252 247.4363 112.4550 15.51942274263036
GLOBAL-12               
1 49772U 21115BA  26199.31839577  .00016589  00000+0  24559-3 0  9995
2 49772  53.1934 254.6339 0002961  74.6035 285.5304 15.55445406260746
GLOBAL-13               
1 49773U 21115BB  26199.65391367  .00011161  00000+0  22422-3 0  9991
2 49773  53.1962 264.8675 0000259 147.0556 213.0469 15.47190673260635
GLOBAL-17               
1 49949U 21120A   26199.27756735  .00015010  00000+0  23127-3 0  9994
2 49949  41.9930 223.8035 0013479 114.9908 245.2338 15.53813418259734
GLOBAL-16               
1 49950U 21120B   26199.39883856  .00013027  00000+0  21856-3 0  9997
2 49950  41.9932 227.4167 0011467 105.6542 254.5569 15.51570672259694
GLOBAL-18               
1 52196U 22034B   26199.01021176  .00013860  00000+0  27519-3 0  9993
2 52196  52.9816 109.2095 0004597  32.3908 327.7379 15.47302188241736
GLOBAL-19               
1 55982U 23041B   26199.84536580  .00008144  00000+0  21431-3 0  9995
2 55982  42.0023  17.1682 0010081 240.9035 119.0795 15.38742313186802
GLOBAL-5                
1 55983U 23041C   26199.55347380  .00007635  00000+0  20136-3 0  9997
2 55983  42.0018  18.3973 0009036 234.7601 125.2394 15.38751174186765
