{"fetched_at":"2026-07-19T07:05:11.394Z","source":"https://celestrak.org/NORAD/elements/gp.php?NAME=GLOBAL&FORMAT=JSON","constellation":"blacksky-gen2","records":[{"OBJECT_NAME":"GLOBAL-2","OBJECT_ID":"2018-099BG","EPOCH":"2026-07-18T20:13:42.290112","CLASSIFICATION_TYPE":"U","MEAN_MOTION":15.08838248,"ECCENTRICITY":0.0007178,"INCLINATION":97.3547,"RA_OF_ASC_NODE":235.0402,"ARG_OF_PERICENTER":57.2308,"MEAN_ANOMALY":302.9612,"EPHEMERIS_TYPE":0,"NORAD_CAT_ID":43812,"ELEMENT_SET_NO":999,"REV_AT_EPOCH":41668,"BSTAR":0.00011713,"MEAN_MOTION_DOT":0.00001784,"MEAN_MOTION_DDOT":0},{"OBJECT_NAME":"GLOBAL-4","OBJECT_ID":"2019-054E","EPOCH":"2026-07-18T18:46:45.416640","CLASSIFICATION_TYPE":"U","MEAN_MOTION":15.67366282,"ECCENTRICITY":0.0005928,"INCLINATION":45.0056,"RA_OF_ASC_NODE":53.6787,"ARG_OF_PERICENTER":219.3238,"MEAN_ANOMALY":140.723,"EPHEMERIS_TYPE":0,"NORAD_CAT_ID":44499,"ELEMENT_SET_NO":999,"REV_AT_EPOCH":38531,"BSTAR":0.00035966,"MEAN_MOTION_DOT":0.00039633,"MEAN_MOTION_DDOT":0},{"OBJECT_NAME":"GLOBAL-9","OBJECT_ID":"2021-023G","EPOCH":"2026-07-18T16:42:55.726848","CLASSIFICATION_TYPE":"U","MEAN_MOTION":15.47700222,"ECCENTRICITY":0.0003901,"INCLINATION":44.9812,"RA_OF_ASC_NODE":73.2676,"ARG_OF_PERICENTER":192.5157,"MEAN_ANOMALY":167.5637,"EPHEMERIS_TYPE":0,"NORAD_CAT_ID":47971,"ELEMENT_SET_NO":999,"REV_AT_EPOCH":29982,"BSTAR":0.00022177,"MEAN_MOTION_DOT":0.00011382,"MEAN_MOTION_DDOT":0},{"OBJECT_NAME":"GLOBAL-14","OBJECT_ID":"2021-106A","EPOCH":"2026-07-18T18:16:08.698656","CLASSIFICATION_TYPE":"U","MEAN_MOTION":15.51942274,"ECCENTRICITY":0.0018252,"INCLINATION":42.0036,"RA_OF_ASC_NODE":103.2309,"ARG_OF_PERICENTER":247.4363,"MEAN_ANOMALY":112.455,"EPHEMERIS_TYPE":0,"NORAD_CAT_ID":49469,"ELEMENT_SET_NO":999,"REV_AT_EPOCH":26303,"BSTAR":0.00024419,"MEAN_MOTION_DOT":0.00014858,"MEAN_MOTION_DDOT":0},{"OBJECT_NAME":"GLOBAL-12","OBJECT_ID":"2021-115BA","EPOCH":"2026-07-18T07:38:29.394528","CLASSIFICATION_TYPE":"U","MEAN_MOTION":15.55445406,"ECCENTRICITY":0.00029618,"INCLINATION":53.1934,"RA_OF_ASC_NODE":254.6339,"ARG_OF_PERICENTER":74.6035,"MEAN_ANOMALY":285.5304,"EPHEMERIS_TYPE":0,"NORAD_CAT_ID":49772,"ELEMENT_SET_NO":999,"REV_AT_EPOCH":26074,"BSTAR":0.0002455878,"MEAN_MOTION_DOT":0.00016589,"MEAN_MOTION_DDOT":0},{"OBJECT_NAME":"GLOBAL-13","OBJECT_ID":"2021-115BB","EPOCH":"2026-07-18T15:41:38.141088","CLASSIFICATION_TYPE":"U","MEAN_MOTION":15.47190673,"ECCENTRICITY":0.0000259,"INCLINATION":53.1962,"RA_OF_ASC_NODE":264.8675,"ARG_OF_PERICENTER":147.0556,"MEAN_ANOMALY":213.0469,"EPHEMERIS_TYPE":0,"NORAD_CAT_ID":49773,"ELEMENT_SET_NO":999,"REV_AT_EPOCH":26063,"BSTAR":0.00022422,"MEAN_MOTION_DOT":0.00011161,"MEAN_MOTION_DDOT":0},{"OBJECT_NAME":"GLOBAL-17","OBJECT_ID":"2021-120A","EPOCH":"2026-07-18T06:39:41.819040","CLASSIFICATION_TYPE":"U","MEAN_MOTION":15.53813418,"ECCENTRICITY":0.00134797,"INCLINATION":41.993,"RA_OF_ASC_NODE":223.8035,"ARG_OF_PERICENTER":114.9908,"MEAN_ANOMALY":245.2338,"EPHEMERIS_TYPE":0,"NORAD_CAT_ID":49949,"ELEMENT_SET_NO":999,"REV_AT_EPOCH":25973,"BSTAR":0.00023127066,"MEAN_MOTION_DOT":0.0001501,"MEAN_MOTION_DDOT":0},{"OBJECT_NAME":"GLOBAL-16","OBJECT_ID":"2021-120B","EPOCH":"2026-07-18T09:34:19.651584","CLASSIFICATION_TYPE":"U","MEAN_MOTION":15.51570672,"ECCENTRICITY":0.00114679,"INCLINATION":41.9932,"RA_OF_ASC_NODE":227.4167,"ARG_OF_PERICENTER":105.6542,"MEAN_ANOMALY":254.5569,"EPHEMERIS_TYPE":0,"NORAD_CAT_ID":49950,"ELEMENT_SET_NO":999,"REV_AT_EPOCH":25969,"BSTAR":0.0002185564,"MEAN_MOTION_DOT":0.00013027,"MEAN_MOTION_DDOT":0},{"OBJECT_NAME":"GLOBAL-18","OBJECT_ID":"2022-034B","EPOCH":"2026-07-18T00:14:42.296064","CLASSIFICATION_TYPE":"U","MEAN_MOTION":15.47302188,"ECCENTRICITY":0.00045974,"INCLINATION":52.9816,"RA_OF_ASC_NODE":109.2095,"ARG_OF_PERICENTER":32.3908,"MEAN_ANOMALY":327.7379,"EPHEMERIS_TYPE":0,"NORAD_CAT_ID":52196,"ELEMENT_SET_NO":999,"REV_AT_EPOCH":24173,"BSTAR":0.00027518714,"MEAN_MOTION_DOT":0.0001386,"MEAN_MOTION_DDOT":0},{"OBJECT_NAME":"GLOBAL-19","OBJECT_ID":"2023-041B","EPOCH":"2026-07-18T20:17:19.605120","CLASSIFICATION_TYPE":"U","MEAN_MOTION":15.38742313,"ECCENTRICITY":0.0010081,"INCLINATION":42.0023,"RA_OF_ASC_NODE":17.1682,"ARG_OF_PERICENTER":240.9035,"MEAN_ANOMALY":119.0795,"EPHEMERIS_TYPE":0,"NORAD_CAT_ID":55982,"ELEMENT_SET_NO":999,"REV_AT_EPOCH":18680,"BSTAR":0.00021431,"MEAN_MOTION_DOT":0.00008144,"MEAN_MOTION_DDOT":0},{"OBJECT_NAME":"GLOBAL-5","OBJECT_ID":"2023-041C","EPOCH":"2026-07-18T13:17:00.136320","CLASSIFICATION_TYPE":"U","MEAN_MOTION":15.38751174,"ECCENTRICITY":0.00090367,"INCLINATION":42.0018,"RA_OF_ASC_NODE":18.3973,"ARG_OF_PERICENTER":234.7601,"MEAN_ANOMALY":125.2394,"EPHEMERIS_TYPE":0,"NORAD_CAT_ID":55983,"ELEMENT_SET_NO":999,"REV_AT_EPOCH":18676,"BSTAR":0.00020135968,"MEAN_MOTION_DOT":0.00007635,"MEAN_MOTION_DDOT":0}]}
